[{"OBJECT_NAME":"STARLINK-37467","OBJECT_ID":"2026-094S","EPOCH":"2026-05-22T06:00:02.000160","MEAN_MOTION":15.59679298,"ECCENTRICITY":0.00015425,"INCLINATION":97.2847,"RA_OF_ASC_NODE":156.988,"ARG_OF_PERICENTER":80.9618,"MEAN_ANOMALY":102.4071,"EPHEMERIS_TYPE":0,"CLASSIFICATION_TYPE":"U","NORAD_CAT_ID":68855,"ELEMENT_SET_NO":999,"REV_AT_EPOCH":520,"BSTAR":-0.028759663,"MEAN_MOTION_DOT":-0.02011679,"MEAN_MOTION_DDOT":0},{"OBJECT_NAME":"STARLINK-37483","OBJECT_ID":"2026-094T","EPOCH":"2026-05-22T06:00:02.000160","MEAN_MOTION":15.59638155,"ECCENTRICITY":0.00014886,"INCLINATION":97.2847,"RA_OF_ASC_NODE":156.989,"ARG_OF_PERICENTER":80.8616,"MEAN_ANOMALY":103.9289,"EPHEMERIS_TYPE":0,"CLASSIFICATION_TYPE":"U","NORAD_CAT_ID":68856,"ELEMENT_SET_NO":999,"REV_AT_EPOCH":520,"BSTAR":-0.028874874,"MEAN_MOTION_DOT":-0.02015914,"MEAN_MOTION_DDOT":0},{"OBJECT_NAME":"STARLINK-37468","OBJECT_ID":"2026-094U","EPOCH":"2026-05-22T06:00:02.000160","MEAN_MOTION":15.59595291,"ECCENTRICITY":0.00013752,"INCLINATION":97.2846,"RA_OF_ASC_NODE":156.9889,"ARG_OF_PERICENTER":87.0274,"MEAN_ANOMALY":99.159,"EPHEMERIS_TYPE":0,"CLASSIFICATION_TYPE":"U","NORAD_CAT_ID":68857,"ELEMENT_SET_NO":999,"REV_AT_EPOCH":520,"BSTAR":-0.029134213,"MEAN_MOTION_DOT":-0.02028758,"MEAN_MOTION_DDOT":0},{"OBJECT_NAME":"STARLINK-37441","OBJECT_ID":"2026-094V","EPOCH":"2026-05-22T06:00:02.000160","MEAN_MOTION":15.56638993,"ECCENTRICITY":0.00015575,"INCLINATION":97.2853,"RA_OF_ASC_NODE":156.9798,"ARG_OF_PERICENTER":67.503,"MEAN_ANOMALY":88.382,"EPHEMERIS_TYPE":0,"CLASSIFICATION_TYPE":"U","NORAD_CAT_ID":68858,"ELEMENT_SET_NO":999,"REV_AT_EPOCH":520,"BSTAR":-0.030082784,"MEAN_MOTION_DOT":-0.0189144,"MEAN_MOTION_DDOT":0},{"OBJECT_NAME":"STARLINK-37488","OBJECT_ID":"2026-094W","EPOCH":"2026-05-22T06:00:02.000160","MEAN_MOTION":15.54123867,"ECCENTRICITY":0.00022494,"INCLINATION":97.285,"RA_OF_ASC_NODE":156.9601,"ARG_OF_PERICENTER":67.6451,"MEAN_ANOMALY":42.4844,"EPHEMERIS_TYPE":0,"CLASSIFICATION_TYPE":"U","NORAD_CAT_ID":68859,"ELEMENT_SET_NO":999,"REV_AT_EPOCH":520,"BSTAR":-0.025525071,"MEAN_MOTION_DOT":-0.01478117,"MEAN_MOTION_DDOT":0},{"OBJECT_NAME":"STARLINK-37388","OBJECT_ID":"2026-094X","EPOCH":"2026-05-22T06:00:02.000160","MEAN_MOTION":15.49186692,"ECCENTRICITY":0.00010264,"INCLINATION":97.2855,"RA_OF_ASC_NODE":156.8944,"ARG_OF_PERICENTER":83.5576,"MEAN_ANOMALY":237.1162,"EPHEMERIS_TYPE":0,"CLASSIFICATION_TYPE":"U","NORAD_CAT_ID":68860,"ELEMENT_SET_NO":999,"REV_AT_EPOCH":520,"BSTAR":0.00032624181,"MEAN_MOTION_DOT":0.00017691,"MEAN_MOTION_DDOT":0},{"OBJECT_NAME":"STARLINK-37479","OBJECT_ID":"2026-094Y","EPOCH":"2026-05-22T06:00:02.000160","MEAN_MOTION":15.57612163,"ECCENTRICITY":0.00013689,"INCLINATION":97.2853,"RA_OF_ASC_NODE":156.9887,"ARG_OF_PERICENTER":72.3145,"MEAN_ANOMALY":110.0148,"EPHEMERIS_TYPE":0,"CLASSIFICATION_TYPE":"U","NORAD_CAT_ID":68861,"ELEMENT_SET_NO":999,"REV_AT_EPOCH":520,"BSTAR":-0.011682674,"MEAN_MOTION_DOT":-0.00792798,"MEAN_MOTION_DDOT":0},{"OBJECT_NAME":"STARLINK-37453","OBJECT_ID":"2026-094Z","EPOCH":"2026-05-22T06:00:02.000160","MEAN_MOTION":15.5274672,"ECCENTRICITY":0.00015431,"INCLINATION":97.2853,"RA_OF_ASC_NODE":156.9547,"ARG_OF_PERICENTER":74.6035,"MEAN_ANOMALY":21.3185,"EPHEMERIS_TYPE":0,"CLASSIFICATION_TYPE":"U","NORAD_CAT_ID":68862,"ELEMENT_SET_NO":999,"REV_AT_EPOCH":520,"BSTAR":-0.034231619,"MEAN_MOTION_DOT":-0.01868068,"MEAN_MOTION_DDOT":0},{"OBJECT_NAME":"STARLINK-37430","OBJECT_ID":"2026-094AA","EPOCH":"2026-05-22T06:00:02.000160","MEAN_MOTION":15.51799936,"ECCENTRICITY":9.596e-05,"INCLINATION":97.285,"RA_OF_ASC_NODE":156.9461,"ARG_OF_PERICENTER":71.2823,"MEAN_ANOMALY":2.7655,"EPHEMERIS_TYPE":0,"CLASSIFICATION_TYPE":"U","NORAD_CAT_ID":68863,"ELEMENT_SET_NO":999,"REV_AT_EPOCH":520,"BSTAR":-0.059437678,"MEAN_MOTION_DOT":-0.03056883,"MEAN_MOTION_DDOT":0},{"OBJECT_NAME":"KUIPER-00299","OBJECT_ID":"2026-095A","EPOCH":"2026-05-22T06:00:02.000160","MEAN_MOTION":15.27005763,"ECCENTRICITY":0.00082447,"INCLINATION":51.8784,"RA_OF_ASC_NODE":8.3277,"ARG_OF_PERICENTER":205.8527,"MEAN_ANOMALY":66.1626,"EPHEMERIS_TYPE":0,"CLASSIFICATION_TYPE":"U","NORAD_CAT_ID":68864,"ELEMENT_SET_NO":999,"REV_AT_EPOCH":445,"BSTAR":-0.0011161858,"MEAN_MOTION_DOT":-0.00030264,"MEAN_MOTION_DDOT":0},{"OBJECT_NAME":"KUIPER-00353","OBJECT_ID":"2026-095B","EPOCH":"2026-05-22T00:04:18.948576","MEAN_MOTION":15.38766192,"ECCENTRICITY":0.0001189,"INCLINATION":51.8848,"RA_OF_ASC_NODE":8.7956,"ARG_OF_PERICENTER":163.9477,"MEAN_ANOMALY":196.1548,"EPHEMERIS_TYPE":0,"CLASSIFICATION_TYPE":"U","NORAD_CAT_ID":68865,"ELEMENT_SET_NO":999,"REV_AT_EPOCH":370,"BSTAR":0.00051722335,"MEAN_MOTION_DOT":0.00019792,"MEAN_MOTION_DDOT":0},{"OBJECT_NAME":"KUIPER-00357","OBJECT_ID":"2026-095C","EPOCH":"2026-05-22T00:15:03.416544","MEAN_MOTION":15.38326901,"ECCENTRICITY":0.00033898,"INCLINATION":51.8847,"RA_OF_ASC_NODE":8.8483,"ARG_OF_PERICENTER":173.9445,"MEAN_ANOMALY":186.1584,"EPHEMERIS_TYPE":0,"CLASSIFICATION_TYPE":"U","NORAD_CAT_ID":68866,"ELEMENT_SET_NO":999,"REV_AT_EPOCH":370,"BSTAR":0.00053670403,"MEAN_MOTION_DOT":0.00020259,"MEAN_MOTION_DDOT":0},{"OBJECT_NAME":"KUIPER-00364","OBJECT_ID":"2026-095D","EPOCH":"2026-05-22T00:19:55.500384","MEAN_MOTION":15.38099083,"ECCENTRICITY":0.00034999,"INCLINATION":51.8813,"RA_OF_ASC_NODE":8.8702,"ARG_OF_PERICENTER":179.9317,"MEAN_ANOMALY":180.1671,"EPHEMERIS_TYPE":0,"CLASSIFICATION_TYPE":"U","NORAD_CAT_ID":68867,"ELEMENT_SET_NO":999,"REV_AT_EPOCH":370,"BSTAR":0.00031744313,"MEAN_MOTION_DOT":0.00011718,"MEAN_MOTION_DDOT":0},{"OBJECT_NAME":"KUIPER-00375","OBJECT_ID":"2026-095E","EPOCH":"2026-05-22T00:06:43.081056","MEAN_MOTION":15.38652834,"ECCENTRICITY":0.00015911,"INCLINATION":51.8845,"RA_OF_ASC_NODE":8.8104,"ARG_OF_PERICENTER":166.2818,"MEAN_ANOMALY":193.8213,"EPHEMERIS_TYPE":0,"CLASSIFICATION_TYPE":"U","NORAD_CAT_ID":68868,"ELEMENT_SET_NO":999,"REV_AT_EPOCH":370,"BSTAR":0.00066342401,"MEAN_MOTION_DOT":0.00025423,"MEAN_MOTION_DDOT":0},{"OBJECT_NAME":"KUIPER-00433","OBJECT_ID":"2026-095F","EPOCH":"2026-05-22T06:00:02.000160","MEAN_MOTION":15.08944574,"ECCENTRICITY":0.00072793,"INCLINATION":51.8816,"RA_OF_ASC_NODE":9.298,"ARG_OF_PERICENTER":210.672,"MEAN_ANOMALY":2.3809,"EPHEMERIS_TYPE":0,"CLASSIFICATION_TYPE":"U","NORAD_CAT_ID":68869,"ELEMENT_SET_NO":999,"REV_AT_EPOCH":371,"BSTAR":-0.0019008751,"MEAN_MOTION_DOT":-0.00030546,"MEAN_MOTION_DDOT":0},{"OBJECT_NAME":"KUIPER-00437","OBJECT_ID":"2026-095G","EPOCH":"2026-05-22T00:40:26.950944","MEAN_MOTION":15.37117685,"ECCENTRICITY":0.00075607,"INCLINATION":51.8808,"RA_OF_ASC_NODE":8.9582,"ARG_OF_PERICENTER":194.7099,"MEAN_ANOMALY":165.3669,"EPHEMERIS_TYPE":0,"CLASSIFICATION_TYPE":"U","NORAD_CAT_ID":68870,"ELEMENT_SET_NO":999,"REV_AT_EPOCH":370,"BSTAR":0.00058935792,"MEAN_MOTION_DOT":0.00021434,"MEAN_MOTION_DDOT":0}]