STARLINK-37467          
1 68855U 26094S   26142.25002315 -.02011679  00000+0 -28760-1 0  9997
2 68855  97.2847 156.9880 0001542  80.9618 102.4071 15.59679298  5205
STARLINK-37483          
1 68856U 26094T   26142.25002315 -.02015914  00000+0 -28875-1 0  9991
2 68856  97.2847 156.9890 0001488  80.8616 103.9289 15.59638155  5207
STARLINK-37468          
1 68857U 26094U   26142.25002315 -.02028758  00000+0 -29134-1 0  9991
2 68857  97.2846 156.9889 0001375  87.0274  99.1590 15.59595291  5203
STARLINK-37441          
1 68858U 26094V   26142.25002315 -.01891440  00000+0 -30083-1 0  9992
2 68858  97.2853 156.9798 0001557  67.5030  88.3820 15.56638993  5206
STARLINK-37488          
1 68859U 26094W   26142.25002315 -.01478117  00000+0 -25525-1 0  9990
2 68859  97.2850 156.9601 0002249  67.6451  42.4844 15.54123867  5208
STARLINK-37388          
1 68860U 26094X   26142.25002315  .00017691  00000+0  32624-3 0  9995
2 68860  97.2855 156.8944 0001026  83.5576 237.1162 15.49186692  5206
STARLINK-37479          
1 68861U 26094Y   26142.25002315 -.00792798  00000+0 -11683-1 0  9996
2 68861  97.2853 156.9887 0001368  72.3145 110.0148 15.57612163  5208
STARLINK-37453          
1 68862U 26094Z   26142.25002315 -.01868068  00000+0 -34232-1 0  9997
2 68862  97.2853 156.9547 0001543  74.6035  21.3185 15.52746720  5207
STARLINK-37430          
1 68863U 26094AA  26142.25002315 -.03056883  00000+0 -59438-1 0  9999
2 68863  97.2850 156.9461 0000959  71.2823   2.7655 15.51799936  5209
KUIPER-00299            
1 68864U 26095A   26142.25002315 -.00030264  00000+0 -11162-2 0  9996
2 68864  51.8784   8.3277 0008244 205.8527  66.1626 15.27005763  4457
KUIPER-00353            
1 68865U 26095B   26142.00299709  .00019792  00000+0  51722-3 0  9993
2 68865  51.8848   8.7956 0001189 163.9477 196.1548 15.38766192  3702
KUIPER-00357            
1 68866U 26095C   26142.01045621  .00020259  00000+0  53670-3 0  9991
2 68866  51.8847   8.8483 0003389 173.9445 186.1584 15.38326901  3707
KUIPER-00364            
1 68867U 26095D   26142.01383681  .00011718  00000+0  31744-3 0  9991
2 68867  51.8813   8.8702 0003499 179.9317 180.1671 15.38099083  3700
KUIPER-00375            
1 68868U 26095E   26142.00466529  .00025423  00000+0  66342-3 0  9994
2 68868  51.8845   8.8104 0001591 166.2818 193.8213 15.38652834  3700
KUIPER-00433            
1 68869U 26095F   26142.25002315 -.00030546  00000+0 -19009-2 0  9992
2 68869  51.8816   9.2980 0007279 210.6720   2.3809 15.08944574  3719
KUIPER-00437            
1 68870U 26095G   26142.02808971  .00021434  00000+0  58936-3 0  9998
2 68870  51.8808   8.9582 0007560 194.7099 165.3669 15.37117685  3700
